[{"OBJECT_NAME":"ORBCOMM FM118","OBJECT_ID":"2015-081E","EPOCH":"2026-03-09T11:40:57.402336","MEAN_MOTION":14.58732197,"ECCENTRICITY":0.00039245,"INCLINATION":47.0034,"RA_OF_ASC_NODE":113.1194,"ARG_OF_PERICENTER":286.8765,"MEAN_ANOMALY":73.169,"EPHEMERIS_TYPE":0,"CLASSIFICATION_TYPE":"U","NORAD_CAT_ID":41183,"ELEMENT_SET_NO":999,"REV_AT_EPOCH":54317,"BSTAR":0.00026393443,"MEAN_MOTION_DOT":1.073e-5,"MEAN_MOTION_DDOT":0},{"OBJECT_NAME":"FENGYUN 1C DEB","OBJECT_ID":"1999-025AXX","EPOCH":"2026-03-08T13:05:33.569952","MEAN_MOTION":14.51076079,"ECCENTRICITY":0.00533603,"INCLINATION":99.0262,"RA_OF_ASC_NODE":279.2081,"ARG_OF_PERICENTER":321.9152,"MEAN_ANOMALY":67.3772,"EPHEMERIS_TYPE":0,"CLASSIFICATION_TYPE":"U","NORAD_CAT_ID":30885,"ELEMENT_SET_NO":999,"REV_AT_EPOCH":98221,"BSTAR":0.0028947066,"MEAN_MOTION_DOT":0.00011645,"MEAN_MOTION_DDOT":0}]
